TITAN 4B R/B            
1 26474U 00047B   25311.13950733  .00005483  00000+0  35291-3 0  9999
2 26474  67.9919  24.8108 0042427 185.9200 174.1453 15.08385332374426
ENVISAT                 
1 27386U 02009A   25311.15200647  .00000179  00000+0  72004-4 0  9997
2 27386  98.3540 262.8056 0001329  83.7757 268.6027 14.38978400241549
IDEFIX & ARIANE 42P R/B 
1 27422U 02021B   25310.78184510  .00000470  00000+0  19529-3 0  9996
2 27422  98.5730 245.9502 0011527 184.1552 175.9537 14.30909310226445
AQUA                    
1 27424U 02022A   25311.17531449  .00001444  00000+0  29987-3 0  9991
2 27424  98.3983 271.4897 0001049  48.8074  77.3038 14.61675109250830
CZ-4B R/B               
1 27432U 02024C   25311.13613652  .00000080  00000+0  64348-4 0  9991
2 27432  98.9055   0.0227 0050326  12.2131  45.6724 14.14516492211912
MIDORI II (ADEOS-II)    
1 27597U 02056A   25310.80051172  .00000444  00000+0  19282-3 0  9994
2 27597  98.7576 263.5796 0001588  42.2794 317.8510 14.29167242192748
H-2A R/B                
1 27601U 02056E   25310.79922630  .00000422  00000+0  16245-3 0  9996
2 27601  98.3010 270.9983 0070479 166.8646 211.2798 14.33636523196508
CZ-4B R/B               
1 28059U 03049C   25310.97051233  .00000541  00000+0  13604-3 0  9997
2 28059  98.6762 296.1880 0047159 245.7523 113.8741 14.54857060168754
CZ-2C R/B               
1 28222U 04012C   25311.12836505  .00035500  00000+0  57893-3 0  9992
2 28222  97.7484   0.8876 0019947  44.0432 316.2405 15.52301565185191
SL-16 R/B               
1 28353U 04021B   25310.91118539  .00000010  00000+0  30143-4 0  9991
2 28353  70.9970 130.1511 0006832 237.6847 122.3614 14.14569582105474
CZ-4B R/B               
1 28415U 04035C   25311.04325488  .00010264  00000+0  38851-3 0  9998
2 28415  97.3652 341.8760 0035241  45.5289 314.8821 15.26527079161189
CZ-2C R/B               
1 28480U 04046B   25310.77642763  .00000259  00000+0  11095-3 0  9993
2 28480  98.1954 228.3963 0139932 157.8837 202.8463 14.26916262 90978
